<?xml version="1.0" encoding="utf-8" ?>
<kml xmlns="http://www.opengis.net/kml/2.2">
<Document id="root_doc">
<Schema name="tracks" id="tracks">
	<SimpleField name="Description" type="string"></SimpleField>
	<SimpleField name="cmt" type="string"></SimpleField>
	<SimpleField name="desc" type="string"></SimpleField>
	<SimpleField name="src" type="string"></SimpleField>
	<SimpleField name="link1_href" type="string"></SimpleField>
	<SimpleField name="link1_text" type="string"></SimpleField>
	<SimpleField name="link1_type" type="string"></SimpleField>
	<SimpleField name="link2_href" type="string"></SimpleField>
	<SimpleField name="link2_text" type="string"></SimpleField>
	<SimpleField name="link2_type" type="string"></SimpleField>
	<SimpleField name="number" type="int"></SimpleField>
</Schema>
<Folder><name>tracks</name>
  <Placemark>
	<name>RO010502500 - 1a</name>
	<Style><LineStyle><color>ff0000ff</color></LineStyle><PolyStyle><fill>0</fill></PolyStyle></Style>
	<ExtendedData><SchemaData schemaUrl="#tracks">
		<SimpleData name="cmt">4.18</SimpleData>
		<SimpleData name="desc">PORUMB</SimpleData>
		<SimpleData name="src">2025</SimpleData>
	</SchemaData></ExtendedData>
      <MultiGeometry><LineString><coordinates>20.9399990183758,45.6797588743999 20.9399876277277,45.6797871372788 20.9399143969862,45.6800154915256 20.9398777562326,45.6801096830303 20.9397731605045,45.6803775252835 20.9396942847707,45.6805491771147 20.9395725557779,45.6808477428369 20.9395084504278,45.6809976561439 20.939443913703,45.6811535229172 20.9394299137218,45.6811885891154 20.9395705973807,45.6811863740462 20.9406192139398,45.6813889613193 20.9407797972953,45.6814202050195 20.9408766737681,45.6814317173672 20.9409657106255,45.6814456364022 20.9413744517961,45.6815393563604 20.9421652839984,45.6816999911912 20.9425919160265,45.6817877200711 20.9423714866851,45.6799007714376 20.942320995142,45.6798573395297 20.9421090662622,45.6797894229675 20.9419925165204,45.6797783556766 20.9415375613397,45.6797442563847 20.9413295499051,45.6797305213027 20.9406059372849,45.6796736235213 20.9401190428526,45.6796303535727 20.9400981993589,45.679741522193 20.9399990183758,45.6797588743999</coordinates></LineString></MultiGeometry>
  </Placemark>
  <Placemark>
	<name>RO010502500 - 2a</name>
	<Style><LineStyle><color>ff0000ff</color></LineStyle><PolyStyle><fill>0</fill></PolyStyle></Style>
	<ExtendedData><SchemaData schemaUrl="#tracks">
		<SimpleData name="cmt">0.80</SimpleData>
		<SimpleData name="desc">PLANTE DE NUTREŢ </SimpleData>
		<SimpleData name="src">2025</SimpleData>
	</SchemaData></ExtendedData>
      <MultiGeometry><LineString><coordinates>20.9428111678917,45.6828902771757 20.9425581070078,45.6824452071695 20.942504585019,45.6822974992189 20.9424946733782,45.6822233903807 20.9425096145922,45.6820989259344 20.9425260705246,45.6820456593662 20.9425416032325,45.6819980333828 20.9425507986888,45.6819137990382 20.9420899320962,45.6818343295946 20.9419123297493,45.6818207928686 20.9416900120763,45.6817683784504 20.941654447986,45.6819043550293 20.9415212273236,45.6822706336344 20.9414100100679,45.6825638511582 20.9415389720918,45.6825890724956 20.9416546928934,45.6826374161008 20.9418670399903,45.6826927170176 20.9422315453523,45.6827687518094 20.9425276985682,45.6828306415094 20.9428111678917,45.6828902771757</coordinates></LineString></MultiGeometry>
  </Placemark>
  <Placemark>
	<name>RO010502500 - 3a</name>
	<Style><LineStyle><color>ff0000ff</color></LineStyle><PolyStyle><fill>0</fill></PolyStyle></Style>
	<ExtendedData><SchemaData schemaUrl="#tracks">
		<SimpleData name="cmt">3.49</SimpleData>
		<SimpleData name="desc">PORUMB</SimpleData>
		<SimpleData name="src">2025</SimpleData>
	</SchemaData></ExtendedData>
      <MultiGeometry><LineString><coordinates>20.942621377994,45.6834434168118 20.9426213769022,45.6834434318573 20.9426162613663,45.6834786953541 20.9426104834899,45.6835184830436 20.9426087884445,45.6835301568537 20.942607570428,45.6835385196004 20.9426060527172,45.6835489741067 20.9425886110415,45.6835943362279 20.9425863934365,45.6836001061315 20.9425803277149,45.6836158837596 20.9425800744424,45.6836165411418 20.9425083321283,45.6837418714699 20.9424566346023,45.683820610176 20.9423063463279,45.6841835975139 20.942103115208,45.6846342934011 20.9421008276588,45.6846389037378 20.9419920633872,45.6849179444539 20.9419745766412,45.6849641498718 20.941846832636,45.6852989695886 20.9418158250989,45.6854054173577 20.9417864016939,45.6854749898253 20.9434064795442,45.6857976131945 20.9435847764289,45.6856999175485 20.9438793416396,45.6855542049525 20.9440050845337,45.6855057693199 20.9440682224987,45.6854777876261 20.9441156660047,45.6854550281977 20.9441472018056,45.6854400770522 20.9441696362319,45.6854294394372 20.9442207980915,45.6854051914676 20.9442273459984,45.6854020882373 20.9442357741244,45.6853980929145 20.9442357808579,45.6853980886516 20.9443490353903,45.6853000373648 20.944402866899,45.6852207344782 20.9444149951433,45.6851929342437 20.9444382326275,45.685135262209 20.9444507052765,45.6849877455068 20.9444507220008,45.6849876920694 20.9444610514412,45.684959359448 20.9444639048725,45.6849515377717 20.9444672113594,45.6849424672681 20.9444678181885,45.6849408023804 20.944446817667,45.6848730564365 20.9444312652068,45.6848571928461 20.944392101652,45.6848125707466 20.943977902403,45.6844826169829 20.9438626077772,45.6843893533603 20.9437544379144,45.6842864374214 20.9435294329072,45.6839875392157 20.9434307348399,45.6837895016814 20.9431105993641,45.6833143053761 20.9429762714943,45.6831416538228 20.9429151582382,45.6830383430559 20.9427396498168,45.6830383906683 20.9426894023724,45.6831803821303 20.9426461271378,45.6833479277233 20.9426255895555,45.6834271642725 20.942621377994,45.6834434168118</coordinates></LineString></MultiGeometry>
  </Placemark>
  <Placemark>
	<name>RO010502500 - 4a</name>
	<Style><LineStyle><color>ff0000ff</color></LineStyle><PolyStyle><fill>0</fill></PolyStyle></Style>
	<ExtendedData><SchemaData schemaUrl="#tracks">
		<SimpleData name="cmt">8.60</SimpleData>
		<SimpleData name="desc">PORUMB</SimpleData>
		<SimpleData name="src">2025</SimpleData>
	</SchemaData></ExtendedData>
      <MultiGeometry><LineString><coordinates>20.9400667225667,45.683245376011 20.9400667222107,45.683245375935 20.9400667221336,45.6832453759586 20.9397252718796,45.6831724441147 20.9396633012676,45.6831130480473 20.9393031546744,45.68305803541 20.9389532476709,45.6829826921874 20.9387519093856,45.6829385852991 20.9387518020901,45.6829385589566 20.9387513284473,45.6829384465968 20.9387500915081,45.6829381412984 20.9387493593356,45.682937962078 20.9387416212433,45.6829360649614 20.9386479860623,45.682926843143 20.9385890585919,45.683061012614 20.9385325639998,45.6831896313896 20.938527176483,45.6832018938368 20.9385266379269,45.6832031173868 20.9385251732942,45.6832064455428 20.9385243915225,45.6832082253685 20.9384026372446,45.6835505678444 20.9382347557759,45.6839663164744 20.9380388565295,45.6844168080761 20.9379178864043,45.6847484524548 20.9377706990899,45.6850898866519 20.9376739487544,45.6853687850794 20.9376738533988,45.6853689957216 20.9376737047482,45.6853693256731 20.9376726007069,45.6853717709044 20.9376632949186,45.6853923316836 20.9376626374829,45.6853937761263 20.9414274228959,45.6861147143784 20.9414740668469,45.6859927133206 20.941478095272,45.6859821763767 20.9415819023096,45.6857332630251 20.9416321416253,45.6856026096938 20.9417107602293,45.6853983572108 20.9418043472452,45.6851698460876 20.9418905560321,45.6849521666748 20.941983408858,45.6847238363731 20.9421321258973,45.684374229682 20.9422715225836,45.6840361778698 20.9423555989388,45.6838336685265 20.9423919447591,45.6837104633897 20.9423796250206,45.6837078898719 20.942375086299,45.6837069436814 20.9423193601743,45.6836953030592 20.9423193223809,45.6836952927063 20.9423056990749,45.6836944648122 20.9421169053059,45.6836580156488 20.9418687935965,45.6836068434349 20.9417199226841,45.6835691153705 20.9416596378232,45.6835422743954 20.9415903723128,45.6835234676162 20.9413056829054,45.6834639745553 20.941181160161,45.683443945407 20.9411009768178,45.683425506351 20.9409725750805,45.6834079412461 20.9408524951224,45.6833776867665 20.940502601298,45.68329768398 20.9403217855489,45.6832437573748 20.9401605886607,45.6832165654098 20.9400667225667,45.683245376011</coordinates></LineString></MultiGeometry>
  </Placemark>
  <Placemark>
	<name>RO010502500 - 5a</name>
	<Style><LineStyle><color>ff0000ff</color></LineStyle><PolyStyle><fill>0</fill></PolyStyle></Style>
	<ExtendedData><SchemaData schemaUrl="#tracks">
		<SimpleData name="cmt">0.78</SimpleData>
		<SimpleData name="desc">PORUMB</SimpleData>
		<SimpleData name="src">2025</SimpleData>
	</SchemaData></ExtendedData>
      <MultiGeometry><LineString><coordinates>20.9062496793996,45.6517119538116 20.9060659073262,45.651801702549 20.9060250862966,45.6518506656295 20.9062062543423,45.652094934359 20.906291535524,45.6522105738297 20.906416782157,45.6523591710113 20.9065441967441,45.6525132494489 20.9066112866596,45.6525967142829 20.9066925315579,45.6526446655497 20.906794632476,45.6525654862729 20.9069655333276,45.6524410517138 20.9070943326679,45.6523304121229 20.9071680915322,45.6522700255246 20.9073220781996,45.6521485843102 20.907354392937,45.6520930108356 20.9073299280988,45.6520236876281 20.9072844032313,45.6519631529108 20.9071712762286,45.6518085986272 20.9068904466875,45.6514135033331 20.9065809995825,45.6515536664939 20.9062496793996,45.6517119538116</coordinates></LineString></MultiGeometry>
  </Placemark>
  <Placemark>
	<name>RO010502500 - 6a</name>
	<Style><LineStyle><color>ff0000ff</color></LineStyle><PolyStyle><fill>0</fill></PolyStyle></Style>
	<ExtendedData><SchemaData schemaUrl="#tracks">
		<SimpleData name="cmt">1.03</SimpleData>
		<SimpleData name="desc">PORUMB</SimpleData>
		<SimpleData name="src">2025</SimpleData>
	</SchemaData></ExtendedData>
      <MultiGeometry><LineString><coordinates>20.9073975166,45.6518945282379 20.9073987189846,45.6518940530828 20.9074005861792,45.6518933142353 20.907401207833,45.651893066425 20.9074075018725,45.6518905821046 20.9074376108604,45.6518786879001 20.9074664367933,45.6518673058907 20.9076920871134,45.6517579878517 20.9077237620916,45.6517427637595 20.9077515642975,45.6517293996323 20.9078043201794,45.6517040458413 20.9078165061948,45.6516981903871 20.9078208500945,45.6516961026069 20.9078208630307,45.6516960944196 20.9079046861943,45.6516445076651 20.9079533540731,45.6516111358147 20.908033252018,45.6515545717489 20.9081281245406,45.6515039495704 20.908176398124,45.6514759668595 20.9082606305095,45.6514303653393 20.9084089975772,45.6513681581538 20.9086078711198,45.6513176731921 20.9086554851193,45.6511230614306 20.9086791596048,45.6509573075864 20.9087053297027,45.6507925440432 20.9087308098847,45.6506196505716 20.9087491646417,45.6504915292971 20.90692203994,45.6512975659118 20.9069874541507,45.6513863736816 20.9071486261733,45.6516056061962 20.9073048078582,45.6518228578143 20.9073568580052,45.6518661562057 20.9073969350595,45.6518947579274 20.9073975166,45.6518945282379</coordinates></LineString></MultiGeometry>
  </Placemark>
  <Placemark>
	<name>RO010502500 - 7a</name>
	<Style><LineStyle><color>ff0000ff</color></LineStyle><PolyStyle><fill>0</fill></PolyStyle></Style>
	<ExtendedData><SchemaData schemaUrl="#tracks">
		<SimpleData name="cmt">3.70</SimpleData>
		<SimpleData name="desc">PORUMB</SimpleData>
		<SimpleData name="src">2025</SimpleData>
	</SchemaData></ExtendedData>
      <MultiGeometry><LineString><coordinates>20.910322363159,45.6497686924135 20.9103223618957,45.6497686923681 20.9103223581849,45.6497686904336 20.9100835347183,45.6496042445714 20.9100002495504,45.6495548895039 20.9098518504116,45.6494594980852 20.9096417151426,45.6493303671621 20.9096180003588,45.6493157629302 20.9094438225539,45.6492136668334 20.9091839909811,45.6490613663619 20.9090922644397,45.6491178912894 20.9090994573483,45.6491775874219 20.9090309310083,45.6494651065343 20.908972486421,45.6498079227796 20.9089304910886,45.6500486656657 20.9088817655349,45.6503990358753 20.9088437433816,45.650673242621 20.9087685868683,45.6513675800568 20.9087586602869,45.6516157799607 20.9093430004708,45.6522401703337 20.9106773365684,45.6507796836145 20.9109454681818,45.6508181382955 20.9111865737935,45.6508574222644 20.9112495851947,45.6507507179623 20.9112958496918,45.6506623237437 20.911273677287,45.6505615639713 20.911258143581,45.65054569611 20.9112167627371,45.6504793681892 20.9111742325251,45.6504111978116 20.9111107178501,45.6503314664872 20.9110203403122,45.6502327583798 20.9109136739107,45.6501109505997 20.9108249078048,45.6500429195379 20.910805871245,45.6500286007736 20.9107869359132,45.6500157085411 20.9107093663302,45.6499628896224 20.9106502304978,45.6499226233775 20.9104972029557,45.6498357182485 20.9104800795094,45.6498266457517 20.910322363159,45.6497686924135</coordinates></LineString></MultiGeometry>
  </Placemark>
  <Placemark>
	<name>RO010502500 - 25a</name>
	<Style><LineStyle><color>ff0000ff</color></LineStyle><PolyStyle><fill>0</fill></PolyStyle></Style>
	<ExtendedData><SchemaData schemaUrl="#tracks">
		<SimpleData name="cmt">0.63</SimpleData>
		<SimpleData name="desc">PLANTE DE NUTREŢ </SimpleData>
		<SimpleData name="src">2025</SimpleData>
	</SchemaData></ExtendedData>
      <MultiGeometry><LineString><coordinates>20.9413343284,45.6833410336526 20.9418850668319,45.6834534286589 20.9419148895974,45.6834319780898 20.9424720377115,45.6835445987473 20.9424941851188,45.6834801880834 20.9425801567793,45.6832302868947 20.9426407049551,45.6830616099964 20.942627652186,45.6829936030373 20.9425987932243,45.6829504282687 20.9425575188895,45.6829154562284 20.9424951168564,45.6829078283091 20.9420224006493,45.6828180302065 20.9416835026962,45.6827609189383 20.9415321140041,45.6827402113627 20.9415232497043,45.682809238067 20.9413343284,45.6833410336526</coordinates></LineString></MultiGeometry>
  </Placemark>
  <Placemark>
	<name>RO010502500 - 26a</name>
	<Style><LineStyle><color>ff0000ff</color></LineStyle><PolyStyle><fill>0</fill></PolyStyle></Style>
	<ExtendedData><SchemaData schemaUrl="#tracks">
		<SimpleData name="cmt">6.93</SimpleData>
		<SimpleData name="desc">SOIA (sămânță certificată)</SimpleData>
		<SimpleData name="src">2025</SimpleData>
	</SchemaData></ExtendedData>
      <MultiGeometry><LineString><coordinates>20.8708701559822,45.6667205412147 20.8706586004951,45.6669168726444 20.8704683017546,45.6671457385091 20.870254279519,45.6674111081459 20.8700133870052,45.6676844359536 20.8698260598019,45.667921693999 20.8698031991954,45.6679763895541 20.8697762312476,45.6680409133361 20.870309451094,45.6682604729329 20.8706202689121,45.6683774800748 20.8710048065688,45.668515533016 20.871309526137,45.6686490677043 20.8717348248843,45.668819666907 20.8720765116553,45.6689553510599 20.8724474331481,45.6691004699067 20.8726962795552,45.6691978332468 20.8731317828003,45.6693743897473 20.873454407863,45.6694934381269 20.8737322397912,45.6696032965402 20.8739186190452,45.669671293691 20.8739704497464,45.6695850964812 20.8741389244211,45.669345527317 20.8743221416981,45.6691307179442 20.8745824446488,45.6688616963191 20.874899127844,45.668509163082 20.875088959329,45.6683038682739 20.8751345480003,45.6682413096147 20.8709699368938,45.6665917127699 20.8708701697519,45.6667205227653 20.8708701656056,45.6667205278978 20.8708701559822,45.6667205412147</coordinates></LineString></MultiGeometry>
  </Placemark>
  <Placemark>
	<name>RO010502500 - 27a</name>
	<Style><LineStyle><color>ff0000ff</color></LineStyle><PolyStyle><fill>0</fill></PolyStyle></Style>
	<ExtendedData><SchemaData schemaUrl="#tracks">
		<SimpleData name="cmt">1.18</SimpleData>
		<SimpleData name="desc">TEREN NECULTIVAT</SimpleData>
		<SimpleData name="src">2025</SimpleData>
	</SchemaData></ExtendedData>
      <MultiGeometry><LineString><coordinates>20.8695412967809,45.6682938341518 20.8695215191587,45.6683174901329 20.8695167553274,45.668323188374 20.8695037617604,45.6683387335395 20.8695037495839,45.6683387442716 20.8694706935058,45.668378282502 20.8694692020503,45.6683800665872 20.8694689610343,45.6683803559306 20.872455266491,45.6694973955641 20.8737059073406,45.669959907022 20.8737004017203,45.669969415615 20.8737010104492,45.6699696429967 20.8737061165347,45.6699622633265 20.8737292352859,45.6699288499272 20.8737426693263,45.6699094297731 20.8737704913962,45.6698692191508 20.8738118145858,45.6698094962324 20.8738118287221,45.6698094787334 20.8738146139995,45.6698063736685 20.8738785032326,45.6697353741883 20.8738830038169,45.6697281706481 20.873773051572,45.6696819738541 20.8737359356158,45.6696663809165 20.8732122312288,45.6694679052931 20.8729750581193,45.6693745597784 20.8727235993817,45.6692815962122 20.8726786894523,45.6692619648319 20.8725888082852,45.6692226637692 20.872383611081,45.6691329443192 20.8723574442731,45.6691228633425 20.8721818220414,45.6690649349667 20.8721694754778,45.6690608586848 20.8721663718573,45.6690598347204 20.8721528801191,45.6690553845838 20.8719861917086,45.6689973746999 20.871902682879,45.6689766940394 20.871787880564,45.6689431705724 20.8716032758851,45.6688668588304 20.8715243443253,45.6688346364251 20.8710785139822,45.6686515839539 20.8709262931982,45.6685907652622 20.8707771160828,45.6685374415464 20.8706248959465,45.6684766224619 20.8705039823509,45.6684284666429 20.8702084752697,45.6683163376064 20.8699565265639,45.6682283931927 20.869821692684,45.6681756788065 20.8697418259644,45.6681544082443 20.8696678679638,45.6681348831607 20.8695412967809,45.6682938341518</coordinates></LineString></MultiGeometry>
  </Placemark>
  <Placemark>
	<name>RO010502500 - 28a</name>
	<Style><LineStyle><color>ff0000ff</color></LineStyle><PolyStyle><fill>0</fill></PolyStyle></Style>
	<ExtendedData><SchemaData schemaUrl="#tracks">
		<SimpleData name="cmt">0.89</SimpleData>
		<SimpleData name="desc">SOIA (sămânță certificată)</SimpleData>
		<SimpleData name="src">2025</SimpleData>
	</SchemaData></ExtendedData>
      <MultiGeometry><LineString><coordinates>20.8767136546413,45.6594283142246 20.8767196125055,45.6594206991941 20.8767490539567,45.6593830700442 20.8767654893546,45.65935934362 20.8768171460334,45.6592847690004 20.8768497839365,45.6592376502341 20.8767820546114,45.6592093260061 20.8765227890824,45.6591009078797 20.8761977023681,45.6589642256014 20.8760084610642,45.6589058178027 20.8758602106919,45.658860062187 20.8758200229456,45.6588434996741 20.875755389236,45.6588168624658 20.8755386523196,45.6587275411491 20.8753770582567,45.6586613674577 20.8753542717949,45.6586520365621 20.8752040258882,45.658590512294 20.8748651837147,45.6584587036076 20.8748618482807,45.6584573032879 20.8748421454357,45.6584490318509 20.8746541183001,45.658370096723 20.8745813494287,45.6583411921753 20.8745238774623,45.658318368141 20.8744011351018,45.658266584555 20.8743567138045,45.6582478438654 20.8742486355971,45.6582079948045 20.8741628099932,45.6581763506256 20.8739641634687,45.6580912547531 20.87381893073,45.6580267869747 20.8737548552511,45.6579983439215 20.8736544740611,45.657953787731 20.8735846477359,45.6579152629857 20.8734656863786,45.6578496329071 20.8726494842578,45.6575189129467 20.8726415214317,45.6575282161735 20.8726362523939,45.6575343759295 20.8726348230712,45.6575360466709 20.8726323386886,45.6575389512348 20.8726303954708,45.6575416308854 20.8726300721504,45.6575420768444 20.8726260060521,45.6575476849521 20.8725986686885,45.6575853875971 20.8725985919708,45.6575854874803 20.8724960734535,45.6577268573624 20.8767104715401,45.6594323825187 20.8767136546413,45.6594283142246</coordinates></LineString></MultiGeometry>
  </Placemark>
  <Placemark>
	<name>RO010502500 - 29a</name>
	<Style><LineStyle><color>ff0000ff</color></LineStyle><PolyStyle><fill>0</fill></PolyStyle></Style>
	<ExtendedData><SchemaData schemaUrl="#tracks">
		<SimpleData name="cmt">2.29</SimpleData>
		<SimpleData name="desc">SOIA (sămânță certificată)</SimpleData>
		<SimpleData name="src">2025</SimpleData>
	</SchemaData></ExtendedData>
      <MultiGeometry><LineString><coordinates>20.8813535500153,45.6441622353493 20.8815787202787,45.6441996823437 20.8818450873669,45.6441742018129 20.8823282356083,45.6441340523332 20.8829662362643,45.6440832941911 20.8834854626398,45.6440640779488 20.8768013565738,45.6429072254241 20.8768055757454,45.6429370974319 20.8768292519432,45.6430514284121 20.8768497014318,45.6431224146677 20.8768835322103,45.6432209032296 20.8768963884033,45.6433078247008 20.876881271917,45.6433910306814 20.8769041225958,45.6433945605443 20.8813535500153,45.6441622353493</coordinates></LineString></MultiGeometry>
  </Placemark>
  <Placemark>
	<name>RO010502500 - 30a</name>
	<Style><LineStyle><color>ff0000ff</color></LineStyle><PolyStyle><fill>0</fill></PolyStyle></Style>
	<ExtendedData><SchemaData schemaUrl="#tracks">
		<SimpleData name="cmt">1.96</SimpleData>
		<SimpleData name="desc">PORUMB</SimpleData>
		<SimpleData name="src">2025</SimpleData>
	</SchemaData></ExtendedData>
      <MultiGeometry><LineString><coordinates>20.9067416483581,45.6508792182069 20.9067416485383,45.6508792183926 20.9067416486856,45.6508792183733 20.9068938110296,45.651036080687 20.9068938108709,45.6510360808609 20.9068938108894,45.65103608088 20.9068925680807,45.6510374432949 20.9068665913843,45.651065920754 20.9068010761544,45.6511377401367 20.9068243959603,45.6511949654753 20.9068371510491,45.6512262490032 20.9068446949516,45.6512388041492 20.9068842946071,45.6512909379418 20.906888421179,45.6512963700281 20.9068959996928,45.651306345385 20.9069963882793,45.6512642177113 20.9085622150304,45.6505721619865 20.9087744830599,45.6504789311631 20.9087752710049,45.6504681526758 20.9087776679687,45.6504529292031 20.9087795396354,45.6504448913886 20.9088131932291,45.6502529295771 20.9088570652842,45.6499236382825 20.9089003223512,45.6495444333707 20.9089232492091,45.6495083344411 20.9089398610603,45.6494620121336 20.9089458617983,45.6493623548673 20.9089458631114,45.6493623369031 20.9089481854203,45.6493309185236 20.9064117493714,45.6505162457139 20.9064126129281,45.650520239287 20.9066714451667,45.6508536210822 20.906691101677,45.6508789407909 20.9066914894944,45.6508794320445 20.9066931032873,45.6508814902655 20.9066960246901,45.6508852102064 20.9067416483581,45.6508792182069</coordinates></LineString></MultiGeometry>
  </Placemark>
  <Placemark>
	<name>RO010502500 - 31a</name>
	<Style><LineStyle><color>ff0000ff</color></LineStyle><PolyStyle><fill>0</fill></PolyStyle></Style>
	<ExtendedData><SchemaData schemaUrl="#tracks">
		<SimpleData name="cmt">1.07</SimpleData>
		<SimpleData name="desc">LUCERNÄ</SimpleData>
		<SimpleData name="src">2025</SimpleData>
	</SchemaData></ExtendedData>
      <MultiGeometry><LineString><coordinates>20.8937722380619,45.6498661323153 20.8937717596095,45.6498659497577 20.8937715947778,45.6498658861723 20.8932304354581,45.6496651952028 20.8932273987878,45.6496640556808 20.8931963504028,45.6496524057728 20.8930761276533,45.6496073011952 20.893051947141,45.6495982241482 20.8920278323193,45.650899712035 20.8925141593759,45.6510940523139 20.8927444967035,45.6511824643632 20.8937790135893,45.6498687286543 20.8937733557857,45.6498665612159 20.8937728957646,45.6498663840908 20.8937722380619,45.6498661323153</coordinates></LineString></MultiGeometry>
  </Placemark>
  <Placemark>
	<name>RO010502500 - 32a</name>
	<Style><LineStyle><color>ff0000ff</color></LineStyle><PolyStyle><fill>0</fill></PolyStyle></Style>
	<ExtendedData><SchemaData schemaUrl="#tracks">
		<SimpleData name="cmt">2.44</SimpleData>
		<SimpleData name="desc">SOIA (sămânță certificată)</SimpleData>
		<SimpleData name="src">2025</SimpleData>
	</SchemaData></ExtendedData>
      <MultiGeometry><LineString><coordinates>20.8839296655982,45.6582444517691 20.88390097794,45.6582063553525 20.8839008668305,45.6582062072412 20.8838991106182,45.6582054475672 20.8836859535197,45.6581179366394 20.8836630996937,45.6581090911562 20.8836508286663,45.6581043415866 20.8835756197644,45.6581168396125 20.8835607724674,45.6581137664624 20.8835118118097,45.6581036342596 20.8812542672539,45.6608451878073 20.8812614459887,45.6608483718213 20.8812919951385,45.6608662345994 20.8813202047924,45.6608827293685 20.8813731189453,45.660907016731 20.8813869189586,45.6609133510569 20.8814240174685,45.6609294623817 20.8814841932652,45.6609705867221 20.88157924449,45.6610062586034 20.8817015625456,45.6610570004609 20.8817180009275,45.6610605916191 20.8817826144263,45.6610747060348 20.8819167149597,45.6611151572299 20.8819317770966,45.6611197008904 20.8819317872117,45.6611197030576 20.8820447397129,45.6611625155405 20.8820469065374,45.661163089273 20.8820591879377,45.6611663615349 20.8820613255657,45.6611669306082 20.882069183339,45.6611690215288 20.8820941459182,45.6611756660686 20.8820941460975,45.6611756658321 20.8820870096512,45.6611737664788 20.88420984714,45.6583712563329 20.8841680426244,45.6583544855734 20.8841480882397,45.658346481739 20.8840324864691,45.6582711276988 20.8840324852544,45.6582711267542 20.8840324827587,45.6582711257634 20.8839296655982,45.6582444517691</coordinates></LineString></MultiGeometry>
  </Placemark>
  <Placemark>
	<name>RO010502500 - 33a</name>
	<Style><LineStyle><color>ff0000ff</color></LineStyle><PolyStyle><fill>0</fill></PolyStyle></Style>
	<ExtendedData><SchemaData schemaUrl="#tracks">
		<SimpleData name="cmt">0.94</SimpleData>
		<SimpleData name="desc">PLANTE DE NUTREŢ </SimpleData>
		<SimpleData name="src">2025</SimpleData>
	</SchemaData></ExtendedData>
      <MultiGeometry><LineString><coordinates>20.8826768102268,45.6614011361268 20.8826868011631,45.6614037355649 20.8826971084573,45.6614064166939 20.882710707626,45.6614099547871 20.8848039389489,45.6586471576784 20.8847515882494,45.6586324160184 20.8847139133187,45.6586218099458 20.8845646508573,45.6585590088659 20.8845023984552,45.6585272643695 20.8823976105591,45.6613050850927 20.8824300391218,45.6613230722976 20.8825057095844,45.6613545208193 20.882505713295,45.6613545227547 20.8825997744736,45.6613808901097 20.8826768102268,45.6614011361268</coordinates></LineString></MultiGeometry>
  </Placemark>
  <Placemark>
	<name>RO010502500 - 34a</name>
	<Style><LineStyle><color>ff0000ff</color></LineStyle><PolyStyle><fill>0</fill></PolyStyle></Style>
	<ExtendedData><SchemaData schemaUrl="#tracks">
		<SimpleData name="cmt">1.97</SimpleData>
		<SimpleData name="desc">SOIA (sămânță certificată)</SimpleData>
		<SimpleData name="src">2025</SimpleData>
	</SchemaData></ExtendedData>
      <MultiGeometry><LineString><coordinates>20.8839907169541,45.6619623108171 20.8842005579473,45.6620518223124 20.8842005580235,45.6620518223565 20.8842005585533,45.6620518225826 20.8842028007626,45.6620531198926 20.8843144575249,45.6621177187527 20.8843208404653,45.6621204659158 20.8843271903297,45.6621231984224 20.884331431813,45.6621250241995 20.8866290176398,45.6593424683063 20.8860192180043,45.6590877142087 20.8837330162236,45.6618565479361 20.8839907169541,45.6619623108171</coordinates></LineString></MultiGeometry>
  </Placemark>
  <Placemark>
	<name>RO010502500 - 35a</name>
	<Style><LineStyle><color>ff0000ff</color></LineStyle><PolyStyle><fill>0</fill></PolyStyle></Style>
	<ExtendedData><SchemaData schemaUrl="#tracks">
		<SimpleData name="cmt">5.69</SimpleData>
		<SimpleData name="desc">SOIA (sămânță certificată)</SimpleData>
		<SimpleData name="src">2025</SimpleData>
	</SchemaData></ExtendedData>
      <MultiGeometry><LineString><coordinates>20.8906676521805,45.6386018023238 20.8906559423145,45.6385979751771 20.8901366459042,45.6394371130624 20.8895386086323,45.6403935586109 20.8898072794397,45.6405710515994 20.8901106587938,45.6407645762115 20.8904054653264,45.6409428677757 20.8906217926434,45.6406240974871 20.8907191146569,45.6404225429451 20.8908071388504,45.6402196168382 20.8909311346819,45.6402619195487 20.8907875991072,45.6405319778324 20.89074240167,45.6406406657113 20.8907135827366,45.6407250893072 20.8905464744344,45.6410070209912 20.8908048514753,45.641124566664 20.8909728790907,45.641213488389 20.8912652427388,45.6413464175133 20.8914408976458,45.6414180257596 20.8916385062686,45.6415129138505 20.891993564489,45.6416633427312 20.892244041109,45.6417589859616 20.8924921109845,45.6418678432081 20.8930473936033,45.6406229166525 20.8929919859318,45.6406956640888 20.8929051695165,45.6408745269798 20.8929051688575,45.6408745359618 20.8929051553938,45.6408745444814 20.8929051392941,45.6408745889289 20.8928501739058,45.6409505763242 20.8927727788189,45.6409954226152 20.892730932586,45.6409765938479 20.8927048921167,45.640910677315 20.8927048921167,45.640910677315 20.8927048921167,45.640910677315 20.892737769486,45.6407992474831 20.8928406834951,45.6406708126254 20.8929610372857,45.6404656569667 20.8930660352445,45.640261027547 20.8930846097279,45.6402234416925 20.8931041936499,45.6401838209552 20.893116435352,45.6401590558046 20.893124169767,45.6401434038561 20.8932411662245,45.6398294544817 20.8932481527926,45.6397342188298 20.8932475885419,45.6397336851343 20.8932475521053,45.6397336568018 20.8932465187914,45.6397326919101 20.8932455097686,45.6397317459067 20.8932122369846,45.6397005376969 20.8929917669885,45.6395888507727 20.8929196170741,45.6395596071365 20.8927816615347,45.6395089676218 20.8926766227958,45.6395575528371 20.8926153602891,45.6396359154228 20.8925004187412,45.6396940042418 20.8924989253308,45.6396947608396 20.8924736598368,45.6397075283578 20.8924719260601,45.639708411363 20.8924602069897,45.6397143282895 20.8924593135037,45.6397147823403 20.8924585270666,45.6397151772159 20.8924582738965,45.6397153031613 20.8924005971487,45.63971679601 20.8923998768049,45.6397168150304 20.8923355242345,45.6397184810764 20.8923227535609,45.6396890394992 20.8922546591487,45.6395320963463 20.8922546591487,45.6395320963463 20.8922546591487,45.6395320963463 20.892285511961,45.6393616509453 20.8922883817577,45.6393533341946 20.8922883965393,45.6393533077111 20.8922902395319,45.639347961804 20.8923238275949,45.6392508138295 20.8923243165157,45.6392493995695 20.8922058491172,45.6391826852741 20.8917750612183,45.6390086287439 20.8916938384676,45.6389765530734 20.8916138632781,45.638944972683 20.8916136886327,45.6389449033358 20.8915012419606,45.6390692374413 20.8914427746306,45.6392282747658 20.8913695117118,45.6393569506993 20.8913690396033,45.6393591850856 20.8913685494167,45.639361490865 20.8913684731491,45.6393618303289 20.8913666721891,45.6393702757171 20.8913600989207,45.6394010631181 20.8913435897774,45.6394783665906 20.8913329668086,45.6394948867272 20.8913041723332,45.6395396410281 20.8912937234294,45.6395558882696 20.8912860573058,45.6395678051845 20.8912827831352,45.6395728832518 20.8912805232747,45.6395763859228 20.8912240468296,45.6396850178478 20.8911994996058,45.6397322490002 20.8911768373116,45.6397758378573 20.8911560734198,45.6398157759008 20.8911461768295,45.6398348168473 20.8910274135663,45.6400063376473 20.8910032756594,45.6399958657198 20.8909813523493,45.6399863563367 20.8909813024499,45.6399863365229 20.8909599516711,45.6399770729578 20.8909076567684,45.6399543898872 20.8911602356041,45.6394396751727 20.891163264302,45.6394274466867 20.8911642859198,45.6394233229293 20.8911890291706,45.6393235683494 20.8912338607817,45.6392558702656 20.8912733925447,45.6391961849933 20.8912819102172,45.6391833352191 20.891299063147,45.6391574327833 20.8913631514708,45.63906525005 20.8913821262304,45.6390379634728 20.891392519745,45.6390163468001 20.8913547348154,45.6389206920499 20.8913496096351,45.6389154817481 20.891345045384,45.6389108500603 20.8913181519056,45.6388835279859 20.8912938753608,45.6388588580484 20.8912453695962,45.6388095739001 20.8911189037177,45.6387619589264 20.8908902486171,45.6386700639672 20.8908770183866,45.6386636873376 20.8908769684885,45.6386636675238 20.890843402654,45.6386474965998 20.8908172293932,45.6386505948112 20.8907087641065,45.6386152109348 20.8906784976808,45.6386053370808 20.8906730311049,45.6386035546108 20.8906676521805,45.6386018023238</coordinates></LineString></MultiGeometry>
  </Placemark>
  <Placemark>
	<name>RO010502500 - 36a</name>
	<Style><LineStyle><color>ff0000ff</color></LineStyle><PolyStyle><fill>0</fill></PolyStyle></Style>
	<ExtendedData><SchemaData schemaUrl="#tracks">
		<SimpleData name="cmt">2.17</SimpleData>
		<SimpleData name="desc">SOIA (sămânță certificată)</SimpleData>
		<SimpleData name="src">2025</SimpleData>
	</SchemaData></ExtendedData>
      <MultiGeometry><LineString><coordinates>20.8968296444813,45.6413012925361 20.8965288868137,45.6411871923925 20.8965114153411,45.6411817711725 20.8965081377127,45.6411807541808 20.8964813654876,45.6411724488678 20.896398535948,45.6411480285246 20.8963633481605,45.6411376545128 20.8962801868338,45.6410969208438 20.8962439716277,45.6410812981188 20.8962055292232,45.6410647136946 20.8961903703651,45.6410581742094 20.8961712464485,45.6410490977492 20.8961709476475,45.6410489559377 20.896109634924,45.6410198567556 20.8960735440412,45.6410001228404 20.8960259597394,45.6409741061772 20.8959658374753,45.6409157776331 20.895958594361,45.6409102029666 20.8956935804823,45.6407686348189 20.8956564398165,45.6407527866901 20.8956056197516,45.640731106442 20.8946955227592,45.642815859433 20.8949794278102,45.6429379547435 20.8952051118843,45.6430316430056 20.8954828782907,45.6431516873716 20.895946249925,45.642517676615 20.8960548025659,45.6423818505216 20.8964815814475,45.6418478322209 20.8968675894894,45.6413283632199 20.8968536043874,45.6413117746102 20.8968492703729,45.6413098783945 20.896839707879,45.6413056952749 20.8968320062493,45.6413023257163 20.8968296444813,45.6413012925361</coordinates></LineString></MultiGeometry>
  </Placemark>
  <Placemark>
	<name>RO010502500 - 37a</name>
	<Style><LineStyle><color>ff0000ff</color></LineStyle><PolyStyle><fill>0</fill></PolyStyle></Style>
	<ExtendedData><SchemaData schemaUrl="#tracks">
		<SimpleData name="cmt">1.91</SimpleData>
		<SimpleData name="desc">SOIA (sămânță certificată)</SimpleData>
		<SimpleData name="src">2025</SimpleData>
	</SchemaData></ExtendedData>
      <MultiGeometry><LineString><coordinates>20.8825514924184,45.6577561714748 20.8825066216711,45.6577383554199 20.8823755354087,45.6576509569533 20.8822106089343,45.6575783999596 20.8820836966042,45.6575232937448 20.8820011618908,45.6574881652101 20.8819778511548,45.6574700395172 20.8819846779555,45.6574753478238 20.8819846779555,45.6574753478238 20.8819846779555,45.6574753478238 20.8796849516048,45.660252587175 20.8798197796753,45.6603071630789 20.8798332299821,45.6603111263278 20.8798554913917,45.6603176960795 20.8800285551871,45.6603602195961 20.8801613164754,45.6604039763755 20.8802422132048,45.6604498808049 20.8802753461643,45.6604729373784 20.8802937086139,45.660485714942 20.8825514924184,45.6577561714748</coordinates></LineString></MultiGeometry>
  </Placemark>
</Folder>
</Document></kml>
